CTC1_L_00429001-01
1 10000U 25240TJ  26075.70034722  .00000000  00000+0  00000-0 0  9998
2 10000  50.0000   0.0000 0000000   0.0000   0.0000 12.53473438    19
CTC1_L_00429001-02
1 10001U 25726HX  26075.70034722  .00000000  00000+0  00000-0 0  9998
2 10001  50.0000   0.0000 0000000   0.0000  90.0000 12.53473438    19
CTC1_L_00429001-03
1 10002U 23477OI  26075.70034722  .00000000  00000+0  00000-0 0  9990
2 10002  50.0000   0.0000 0000000   0.0000 180.0000 12.53473438    10
CTC1_L_00429001-04
1 10003U 22515YG  26075.70034722  .00000000  00000+0  00000-0 0  9993
2 10003  50.0000   0.0000 0000000   0.0000 270.0000 12.53473438    11
CTC1_L_00429002-01
1 10004U 25304YZ  26075.70034722  .00000000  00000+0  00000-0 0  9993
2 10004  50.0000  12.0000 0000000   0.0000  12.0000 12.53473438    19
CTC1_L_00429002-02
1 10005U 23873KM  26075.70034722  .00000000  00000+0  00000-0 0  9993
2 10005  50.0000  12.0000 0000000   0.0000 102.0000 12.53473438    10
CTC1_L_00429002-03
1 10006U 24886ZA  26075.70034722  .00000000  00000+0  00000-0 0  9999
2 10006  50.0000  12.0000 0000000   0.0000 192.0000 12.53473438    10
CTC1_L_00429002-04
1 10007U 25217ZL  26075.70034722  .00000000  00000+0  00000-0 0  9999
2 10007  50.0000  12.0000 0000000   0.0000 282.0000 12.53473438    11
CTC1_L_00429003-01
1 10008U 25590PA  26075.70034722  .00000000  00000+0  00000-0 0  9994
2 10008  50.0000  24.0000 0000000   0.0000  24.0000 12.53473438    19
CTC1_L_00429003-02
1 10009U 25242FM  26075.70034722  .00000000  00000+0  00000-0 0  9999
2 10009  50.0000  24.0000 0000000   0.0000 114.0000 12.53473438    10
CTC1_L_00429003-03
1 10010U 23689IG  26075.70034722  .00000000  00000+0  00000-0 0  9994
2 10010  50.0000  24.0000 0000000   0.0000 204.0000 12.53473438    12
CTC1_L_00429003-04
1 10011U 22335EJ  26075.70034722  .00000000  00000+0  00000-0 0  9992
2 10011  50.0000  24.0000 0000000   0.0000 294.0000 12.53473438    12
CTC1_L_00429004-01
1 10012U 22935HG  26075.70034722  .00000000  00000+0  00000-0 0  9999
2 10012  50.0000  36.0000 0000000   0.0000  36.0000 12.53473438    10
CTC1_L_00429004-02
1 10013U 25186PK  26075.70034722  .00000000  00000+0  00000-0 0  9991
2 10013  50.0000  36.0000 0000000   0.0000 126.0000 12.53473438    11
CTC1_L_00429004-03
1 10014U 25311EM  26075.70034722  .00000000  00000+0  00000-0 0  9992
2 10014  50.0000  36.0000 0000000   0.0000 216.0000 12.53473438    12
CTC1_L_00429004-04
1 10015U 26538LU  26075.70034722  .00000000  00000+0  00000-0 0  9995
2 10015  50.0000  36.0000 0000000   0.0000 306.0000 12.53473438    13
CTC1_L_00429005-01
1 10016U 26903FE  26075.70034722  .00000000  00000+0  00000-0 0  9992
2 10016  50.0000  48.0000 0000000   0.0000  48.0000 12.53473438    10
CTC1_L_00429005-02
1 10017U 24440LR  26075.70034722  .00000000  00000+0  00000-0 0  9997
2 10017  50.0000  48.0000 0000000   0.0000 138.0000 12.53473438    11
CTC1_L_00429005-03
1 10018U 22605L   26075.70034722  .00000000  00000+0  00000-0 0  9999
2 10018  50.0000  48.0000 0000000   0.0000 228.0000 12.53473438    12
CTC1_L_00429005-04
1 10019U 26591FY  26075.70034722  .00000000  00000+0  00000-0 0  9998
2 10019  50.0000  48.0000 0000000   0.0000 318.0000 12.53473438    13
CTC1_L_00429006-01
1 10020U 22190FF  26075.70034722  .00000000  00000+0  00000-0 0  9991
2 10020  50.0000  60.0000 0000000   0.0000  60.0000 12.53473438    13
CTC1_L_00429006-02
1 10021U 22875BG  26075.70034722  .00000000  00000+0  00000-0 0  9992
2 10021  50.0000  60.0000 0000000   0.0000 150.0000 12.53473438    14
CTC1_L_00429006-03
1 10022U 23723OZ  26075.70034722  .00000000  00000+0  00000-0 0  9996
2 10022  50.0000  60.0000 0000000   0.0000 240.0000 12.53473438    15
CTC1_L_00429006-04
1 10023U 26984NT  26075.70034722  .00000000  00000+0  00000-0 0  9999
2 10023  50.0000  60.0000 0000000   0.0000 330.0000 12.53473438    16
CTC1_L_00429007-01
1 10024U 26818NX  26075.70034722  .00000000  00000+0  00000-0 0  9996
2 10024  50.0000  72.0000 0000000   0.0000  72.0000 12.53473438    13
CTC1_L_00429007-02
1 10025U 24823PP  26075.70034722  .00000000  00000+0  00000-0 0  9991
2 10025  50.0000  72.0000 0000000   0.0000 162.0000 12.53473438    14
CTC1_L_00429007-03
1 10026U 24519WX  26075.70034722  .00000000  00000+0  00000-0 0  9994
2 10026  50.0000  72.0000 0000000   0.0000 252.0000 12.53473438    15
CTC1_L_00429007-04
1 10027U 25826OB  26075.70034722  .00000000  00000+0  00000-0 0  9997
2 10027  50.0000  72.0000 0000000   0.0000 342.0000 12.53473438    16
CTC1_L_00429008-01
1 10028U 22816KZ  26075.70034722  .00000000  00000+0  00000-0 0  9994
2 10028  50.0000  84.0000 0000000   0.0000  84.0000 12.53473438    13
CTC1_L_00429008-02
1 10029U 23413MT  26075.70034722  .00000000  00000+0  00000-0 0  9999
2 10029  50.0000  84.0000 0000000   0.0000 174.0000 12.53473438    14
CTC1_L_00429008-03
1 10030U 24436LE  26075.70034722  .00000000  00000+0  00000-0 0  9997
2 10030  50.0000  84.0000 0000000   0.0000 264.0000 12.53473438    16
CTC1_L_00429008-04
1 10031U 22224GN  26075.70034722  .00000000  00000+0  00000-0 0  9991
2 10031  50.0000  84.0000 0000000   0.0000 354.0000 12.53473438    17
CTC1_L_00429009-01
1 10032U 26434GB  26075.70034722  .00000000  00000+0  00000-0 0  9999
2 10032  50.0000  96.0000 0000000   0.0000  96.0000 12.53473438    14
CTC1_L_00429009-02
1 10033U 22258IV  26075.70034722  .00000000  00000+0  00000-0 0  9990
2 10033  50.0000  96.0000 0000000   0.0000 186.0000 12.53473438    15
CTC1_L_00429009-03
1 10034U 25356OR  26075.70034722  .00000000  00000+0  00000-0 0  9993
2 10034  50.0000  96.0000 0000000   0.0000 276.0000 12.53473438    16
CTC1_L_00429009-04
1 10035U 26588U   26075.70034722  .00000000  00000+0  00000-0 0  9992
2 10035  50.0000  96.0000 0000000   0.0000   6.0000 12.53473438    18
CTC1_L_00429010-01
1 10036U 23835SC  26075.70034722  .00000000  00000+0  00000-0 0  9995
2 10036  50.0000 108.0000 0000000   0.0000 108.0000 12.53473438    16
CTC1_L_00429010-02
1 10037U 25780MC  26075.70034722  .00000000  00000+0  00000-0 0  9997
2 10037  50.0000 108.0000 0000000   0.0000 198.0000 12.53473438    16
CTC1_L_00429010-03
1 10038U 26627WR  26075.70034722  .00000000  00000+0  00000-0 0  9999
2 10038  50.0000 108.0000 0000000   0.0000 288.0000 12.53473438    17
CTC1_L_00429010-04
1 10039U 26894QT  26075.70034722  .00000000  00000+0  00000-0 0  9996
2 10039  50.0000 108.0000 0000000   0.0000  18.0000 12.53473438    19
CTC1_L_00429011-01
1 10040U 26163QE  26075.70034722  .00000000  00000+0  00000-0 0  9997
2 10040  50.0000 120.0000 0000000   0.0000 120.0000 12.53473438    19
CTC1_L_00429011-02
1 10041U 25027AX  26075.70034722  .00000000  00000+0  00000-0 0  9996
2 10041  50.0000 120.0000 0000000   0.0000 210.0000 12.53473438    10
CTC1_L_00429011-03
1 10042U 22878LM  26075.70034722  .00000000  00000+0  00000-0 0  9998
2 10042  50.0000 120.0000 0000000   0.0000 300.0000 12.53473438    11
CTC1_L_00429011-04
1 10043U 26742XU  26075.70034722  .00000000  00000+0  00000-0 0  9993
2 10043  50.0000 120.0000 0000000   0.0000  30.0000 12.53473438    12
CTC1_L_00429012-01
1 10044U 25362KE  26075.70034722  .00000000  00000+0  00000-0 0  9991
2 10044  50.0000 132.0000 0000000   0.0000 132.0000 12.53473438    19
CTC1_L_00429012-02
1 10045U 25300IT  26075.70034722  .00000000  00000+0  00000-0 0  9994
2 10045  50.0000 132.0000 0000000   0.0000 222.0000 12.53473438    10
CTC1_L_00429012-03
1 10046U 25156GC  26075.70034722  .00000000  00000+0  00000-0 0  9994
2 10046  50.0000 132.0000 0000000   0.0000 312.0000 12.53473438    11
CTC1_L_00429012-04
1 10047U 22516GY  26075.70034722  .00000000  00000+0  00000-0 0  9992
2 10047  50.0000 132.0000 0000000   0.0000  42.0000 12.53473438    12
CTC1_L_00429013-01
1 10048U 25202JL  26075.70034722  .00000000  00000+0  00000-0 0  9998
2 10048  50.0000 144.0000 0000000   0.0000 144.0000 12.53473438    19
CTC1_L_00429013-02
1 10049U 23707IY  26075.70034722  .00000000  00000+0  00000-0 0  9997
2 10049  50.0000 144.0000 0000000   0.0000 234.0000 12.53473438    10
CTC1_L_00429013-03
1 10050U 23134WU  26075.70034722  .00000000  00000+0  00000-0 0  9993
2 10050  50.0000 144.0000 0000000   0.0000 324.0000 12.53473438    12
CTC1_L_00429013-04
1 10051U 24416LP  26075.70034722  .00000000  00000+0  00000-0 0  9998
2 10051  50.0000 144.0000 0000000   0.0000  54.0000 12.53473438    13
CTC1_L_00429014-01
1 10052U 23328RF  26075.70034722  .00000000  00000+0  00000-0 0  9990
2 10052  50.0000 156.0000 0000000   0.0000 156.0000 12.53473438    10
CTC1_L_00429014-02
1 10053U 24412ZI  26075.70034722  .00000000  00000+0  00000-0 0  9996
2 10053  50.0000 156.0000 0000000   0.0000 246.0000 12.53473438    11
CTC1_L_00429014-03
1 10054U 22796YE  26075.70034722  .00000000  00000+0  00000-0 0  9990
2 10054  50.0000 156.0000 0000000   0.0000 336.0000 12.53473438    12
CTC1_L_00429014-04
1 10055U 26739GM  26075.70034722  .00000000  00000+0  00000-0 0  9992
2 10055  50.0000 156.0000 0000000   0.0000  66.0000 12.53473438    13
CTC1_L_00429015-01
1 10056U 25941OV  26075.70034722  .00000000  00000+0  00000-0 0  9997
2 10056  50.0000 168.0000 0000000   0.0000 168.0000 12.53473438    10
CTC1_L_00429015-02
1 10057U 23195LW  26075.70034722  .00000000  00000+0  00000-0 0  9997
2 10057  50.0000 168.0000 0000000   0.0000 258.0000 12.53473438    11
CTC1_L_00429015-03
1 10058U 25614KY  26075.70034722  .00000000  00000+0  00000-0 0  9996
2 10058  50.0000 168.0000 0000000   0.0000 348.0000 12.53473438    12
CTC1_L_00429015-04
1 10059U 22360FJ  26075.70034722  .00000000  00000+0  00000-0 0  9992
2 10059  50.0000 168.0000 0000000   0.0000  78.0000 12.53473438    13
CTC1_L_00429016-01
1 10060U 22088EI  26075.70034722  .00000000  00000+0  00000-0 0  9991
2 10060  50.0000 180.0000 0000000   0.0000 180.0000 12.53473438    13
CTC1_L_00429016-02
1 10061U 26629FB  26075.70034722  .00000000  00000+0  00000-0 0  9997
2 10061  50.0000 180.0000 0000000   0.0000 270.0000 12.53473438    14
